NORAD_CAT_ID,OBJECT_NAME,OBJECT_TYPE,EPOCH,MEAN_MOTION,ECCENTRICITY,INCLINATION,RA_OF_ASC_NODE,ARG_OF_PERICENTER,MEAN_ANOMALY,BSTAR,MEAN_MOTION_DOT,MEAN_MOTION_DDOT,TLE_LINE0,TLE_LINE1,TLE_LINE2,SEMIMAJOR_AXIS,PERIOD,APOGEE,PERIGEE,DECAYED
52644.0,STARLINK-3985,PAYLOAD,2023-11-23 12:38:22,15.08840224,0.0001547,53.2178,57.2916,113.5969,246.5186,0.00010933,1.452e-05,0.0,0 STARLINK-3985,1 52644U 22052AY  23327.52665447  .00001452  00000-0  10933-3 0  9999,2 52644  53.2178  57.2916 0001547 113.5969 246.5186 15.08840224 84749,6917.88,95.438,540.815,538.675,0.0
52644.0,STARLINK-3985,PAYLOAD,2023-11-24 10:53:47,15.0883209,0.0001617,53.218,53.1298,92.0375,268.0803,-1.2502e-06,-3.08e-06,0.0,0 STARLINK-3985,1 52644U 22052AY  23328.45402569 -.00000308  00000-0 -12502-5 0  9993,2 52644  53.2180  53.1298 0001617  92.0375 268.0803 15.08832090 85265,6917.905,95.438,540.888,538.651,0.0
52644.0,STARLINK-3985,PAYLOAD,2023-11-24 12:29:10,15.08835739,0.0001556,53.2178,52.8327,92.1898,267.9272,2.7361e-06,-2.44e-06,0.0,0 STARLINK-3985,1 52644U 22052AY  23328.52026473 -.00000244  00000-0  27361-5 0  9994,2 52644  53.2178  52.8327 0001556  92.1898 267.9272 15.08835739 84893,6917.893,95.438,540.835,538.682,0.0
52644.0,STARLINK-3985,PAYLOAD,2023-11-24 15:39:57,15.08836194,0.0001637,53.2178,52.2326,103.3579,256.7596,3.151e-05,2.13e-06,0.0,0 STARLINK-3985,1 52644U 22052AY  23328.65274436  .00000213  00000-0  31510-4 0  9997,2 52644  53.2178  52.2326 0001637 103.3579 256.7596 15.08836194 84911,6917.892,95.438,540.889,538.625,0.0
52644.0,STARLINK-3985,PAYLOAD,2023-11-25 12:19:57,15.08853657,0.0001684,53.2187,48.3723,103.1485,256.9696,0.00043854,6.701e-05,0.0,0 STARLINK-3985,1 52644U 22052AY  23329.51385838  .00006701  00000-0  43854-3 0  9993,2 52644  53.2187  48.3723 0001684 103.1485 256.9696 15.08853657 85045,6917.839,95.437,540.869,538.539,0.0
52644.0,STARLINK-3985,PAYLOAD,2023-11-26 12:10:43,15.08860704,0.0001679,53.2195,43.9112,103.8787,256.2392,0.00027131,4.035e-05,0.0,0 STARLINK-3985,1 52644U 22052AY  23330.50744806  .00004035  00000-0  27131-3 0  9996,2 52644  53.2195  43.9112 0001679 103.8787 256.2392 15.08860704 85578,6917.817,95.436,540.844,538.521,0.0
52644.0,STARLINK-3985,PAYLOAD,2023-11-27 04:04:35,15.08835849,0.0001578,53.2195,40.9373,104.1257,255.991,-0.00010785,-2.004e-05,0.0,0 STARLINK-3985,1 52644U 22052AY  23331.16985705 -.00002004  00000-0 -10785-3 0  9997,2 52644  53.2195  40.9373 0001578 104.1257 255.9910 15.08835849 85673,6917.893,95.438,540.85,538.666,0.0
52644.0,STARLINK-3985,PAYLOAD,2023-11-27 10:26:08,15.08833062,0.0001619,53.2189,39.7415,112.979,247.1373,-0.00030006,-5.059e-05,0.0,0 STARLINK-3985,1 52644U 22052AY  23331.43481950 -.00005059  00000-0 -30006-3 0  9991,2 52644  53.2189  39.7415 0001619 112.9790 247.1373 15.08833062 85338,6917.902,95.438,540.887,538.647,0.0
52644.0,STARLINK-3985,PAYLOAD,2023-11-28 11:52:18,15.08857379,0.0001654,53.2195,34.9905,73.9712,286.1462,-1.7422e-06,-3.16e-06,0.0,0 STARLINK-3985,1 52644U 22052AY  23332.49465561 -.00000316  00000-0 -17422-5 0  9998,2 52644  53.2195  34.9905 0001654  73.9712 286.1462 15.08857379 85873,6917.827,95.436,540.836,538.548,0.0
52644.0,STARLINK-3985,PAYLOAD,2023-11-29 03:46:12,15.08804899,0.0001723,53.2196,32.0114,134.8054,225.3078,5.3387e-08,-2.87e-06,0.0,0 STARLINK-3985,1 52644U 22052AY  23333.15709429 -.00000287  00000-0  53387-7 0  9994,2 52644  53.2196  32.0114 0001723 134.8054 225.3078 15.08804899 85976,6917.988,95.44,541.045,538.661,0.0
52644.0,STARLINK-3985,PAYLOAD,2023-11-29 11:43:08,15.08810743,0.0001602,53.2184,30.53,84.7372,275.3803,9.1164e-05,1.162e-05,0.0,0 STARLINK-3985,1 52644U 22052AY  23333.48829642  .00001162  00000-0  91164-4 0  9994,2 52644  53.2184  30.5300 0001602  84.7372 275.3803 15.08810743 86028,6917.97,95.439,540.943,538.727,0.0
52644.0,STARLINK-3985,PAYLOAD,2023-11-30 03:36:58,15.08844215,0.0001621,53.2189,27.5573,68.0092,292.1072,0.00013945,1.932e-05,0.0,0 STARLINK-3985,1 52644U 22052AY  23334.15068273  .00001932  00000-0  13945-3 0  9999,2 52644  53.2189  27.5573 0001621  68.0092 292.1072 15.08844215 86123,6917.868,95.437,540.854,538.611,0.0
52644.0,STARLINK-3985,PAYLOAD,2023-11-30 09:58:30,15.08867231,0.000161,53.219,26.368,70.1278,289.9888,0.00049577,7.617e-05,0.0,0 STARLINK-3985,1 52644U 22052AY  23334.41563164  .00007617  00000-0  49577-3 0  9993,2 52644  53.2190  26.3680 0001610  70.1278 289.9888 15.08867231 86165,6917.797,95.436,540.776,538.548,0.0
52644.0,STARLINK-3985,PAYLOAD,2023-12-01 09:49:17,15.08853433,0.0001312,53.2181,21.9055,92.4492,267.6651,0.00035751,5.408e-05,0.0,0 STARLINK-3985,1 52644U 22052AY  23335.40923601  .00005408  00000-0  35751-3 0  9994,2 52644  53.2181  21.9055 0001312  92.4492 267.6651 15.08853433 86313,6917.839,95.437,540.612,538.797,0.0
52644.0,STARLINK-3985,PAYLOAD,2023-12-02 09:40:02,15.08883444,0.0001602,53.2185,17.4447,108.8965,251.2201,0.00041351,6.307e-05,0.0,0 STARLINK-3985,1 52644U 22052AY  23336.40280704  .00006307  00000-0  41351-3 0  9997,2 52644  53.2185  17.4447 0001602 108.8965 251.2201 15.08883444 86462,6917.748,95.435,540.721,538.504,0.0
52644.0,STARLINK-3985,PAYLOAD,2023-12-03 03:09:19,15.08827271,0.0001907,53.2183,14.1831,81.6846,278.4362,-0.00034953,-5.845e-05,0.0,0 STARLINK-3985,1 52644U 22052AY  23337.13147310 -.00005845  00000-0 -34953-3 0  9991,2 52644  53.2183  14.1831 0001907  81.6846 278.4362 15.08827271 86572,6917.919,95.438,541.104,538.465,0.0
52644.0,STARLINK-3985,PAYLOAD,2023-12-03 09:30:52,15.08800196,0.0001689,53.2186,12.9923,86.8239,273.2946,-0.00075196,-0.00012223,0.0,0 STARLINK-3985,1 52644U 22052AY  23337.39644565 -.00012223  00000-0 -75196-3 0  9995,2 52644  53.2186  12.9923 0001689  86.8239 273.2946 15.08800196 86616,6918.002,95.44,541.036,538.699,0.0
52644.0,STARLINK-3985,PAYLOAD,2023-12-04 03:00:07,15.08821218,0.0001567,53.2181,9.7121,76.831,283.2857,0.00071916,0.0001117,0.0,0 STARLINK-3985,1 52644U 22052AY  23338.12508913  .00011170  00000-0  71916-3 0  9997,2 52644  53.2181   9.7121 0001567  76.8310 283.2857 15.08821218 86721,6917.938,95.439,540.887,538.719,0.0
52644.0,STARLINK-3985,PAYLOAD,2023-12-04 07:46:16,15.08836685,0.0001962,53.218,8.8229,88.845,271.2767,0.00059993,9.272e-05,0.0,0 STARLINK-3985,1 52644U 22052AY  23338.32380447  .00009272  00000-0  59993-3 0  9990,2 52644  53.2180   8.8229 0001962  88.8450 271.2767 15.08836685 86750,6917.891,95.438,541.113,538.398,0.0
52644.0,STARLINK-3985,PAYLOAD,2023-12-05 10:47:49,15.08858084,0.0002076,53.2187,3.7652,73.4669,286.6551,0.00067387,0.00010458,0.0,0 STARLINK-3985,1 52644U 22052AY  23339.44988045  .00010458  00000-0  67387-3 0  9996,2 52644  53.2187   3.7652 0002076  73.4669 286.6551 15.08858084 86927,6917.825,95.436,541.126,538.254,0.0
52644.0,STARLINK-3985,PAYLOAD,2023-12-06 01:06:17,15.08849582,0.0001923,53.2185,1.0936,66.4201,293.6993,-4.1998e-05,-9.57e-06,0.0,0 STARLINK-3985,1 52644U 22052AY  23340.04603725 -.00000957  00000-0 -41998-4 0  9999,2 52644  53.2185   1.0936 0001923  66.4201 293.6993 15.08849582 87017,6917.851,95.437,541.046,538.386,0.0
52644.0,STARLINK-3985,PAYLOAD,2023-12-06 10:38:36,15.08850156,0.0002054,53.2179,359.3073,77.8565,282.2657,3.3415e-05,2.44e-06,0.0,0 STARLINK-3985,1 52644U 22052AY  23340.44347619  .00000244  00000-0  33415-4 0  9992,2 52644  53.2179 359.3073 0002054  77.8565 282.2657 15.08850156 86699,6917.849,95.437,541.135,538.293,0.0
52644.0,STARLINK-3985,PAYLOAD,2023-12-07 00:57:04,15.08841783,0.0002139,53.218,356.6332,76.3062,283.8168,-0.00012572,-2.289e-05,0.0,0 STARLINK-3985,1 52644U 22052AY  23341.03963949 -.00002289  00000-0 -12572-3 0  9991,2 52644  53.2180 356.6332 0002139  76.3062 283.8168 15.08841783 87162,6917.875,95.437,541.22,538.26,0.0
52644.0,STARLINK-3985,PAYLOAD,2023-12-07 08:54:00,15.08841477,0.0002094,53.218,355.1457,72.9788,287.1434,-0.00016038,-2.84e-05,0.0,0 STARLINK-3985,1 52644U 22052AY  23341.37084119 -.00002840  00000-0 -16038-3 0  9995,2 52644  53.2180 355.1457 0002094  72.9788 287.1434 15.08841477 86837,6917.876,95.437,541.189,538.292,0.0
52644.0,STARLINK-3985,PAYLOAD,2023-12-08 07:09:24,15.08844086,0.0002057,53.2187,350.9825,75.9406,284.1815,0.00012328,1.675e-05,0.0,0 STARLINK-3985,1 52644U 22052AY  23342.29819967  .00001675  00000-0  12328-3 0  9995,2 52644  53.2187 350.9825 0002057  75.9406 284.1815 15.08844086 87352,6917.868,95.437,541.156,538.31,0.0
52644.0,STARLINK-3985,PAYLOAD,2023-12-09 07:00:11,15.08843609,0.0001852,53.2182,346.5213,84.5676,275.5527,0.00014751,2.061e-05,0.0,0 STARLINK-3985,1 52644U 22052AY  23343.29179866  .00002061  00000-0  14751-3 0  9995,2 52644  53.2182 346.5213 0001852  84.5676 275.5527 15.08843609 87125,6917.869,95.437,541.016,538.453,0.0
52644.0,STARLINK-3985,PAYLOAD,2023-12-10 00:29:26,15.08832108,0.0002163,53.2194,343.2518,102.2825,257.8409,-1.9733e-05,-6.02e-06,0.0,0 STARLINK-3985,1 52644U 22052AY  23344.02044969 -.00000602  00000-0 -19733-4 0  9999,2 52644  53.2194 343.2518 0002163 102.2825 257.8409 15.08832108 87618,6917.905,95.438,541.266,538.273,0.0
52644.0,STARLINK-3985,PAYLOAD,2023-12-11 03:31:00,15.08836616,0.0002242,53.2186,338.1894,119.605,240.5165,-3.8567e-05,-9.02e-06,0.0,0 STARLINK-3985,1 52644U 22052AY  23345.14653037 -.00000902  00000-0 -38567-4 0  9994,2 52644  53.2186 338.1894 0002242 119.6050 240.5165 15.08836616 87783,6917.891,95.438,541.307,538.205,0.0
52644.0,STARLINK-3985,PAYLOAD,2023-12-11 06:41:46,15.08838353,0.0001904,53.2185,337.5981,105.2726,254.8476,2.5113e-05,1.12e-06,0.0,0 STARLINK-3985,1 52644U 22052AY  23345.27900979  .00000112  00000-0  25113-4 0  9992,2 52644  53.2185 337.5981 0001904 105.2726 254.8476 15.08838353 87421,6917.885,95.438,541.068,538.433,0.0
52644.0,STARLINK-3985,PAYLOAD,2023-12-12 04:57:10,15.08841298,0.0001803,53.2186,333.4361,103.3539,256.7654,0.00021784,3.181e-05,0.0,0 STARLINK-3985,1 52644U 22052AY  23346.20636767  .00003181  00000-0  21784-3 0  9995,2 52644  53.2186 333.4361 0001803 103.3539 256.7654 15.08841298 87946,6917.876,95.437,540.989,538.494,0.0
